[{"OBJECT_NAME":"ONEWEB-0505","OBJECT_ID":"2022-138L","EPOCH":"2026-03-09T17:30:10.630080","MEAN_MOTION":13.19725341,"ECCENTRICITY":0.00016475,"INCLINATION":87.924,"RA_OF_ASC_NODE":324.7757,"ARG_OF_PERICENTER":104.4657,"MEAN_ANOMALY":255.6659,"EPHEMERIS_TYPE":0,"CLASSIFICATION_TYPE":"U","NORAD_CAT_ID":54123,"ELEMENT_SET_NO":999,"REV_AT_EPOCH":16369,"BSTAR":-0.00032655199,"MEAN_MOTION_DOT":-1.18e-6,"MEAN_MOTION_DDOT":0},{"OBJECT_NAME":"THORAD AGENA D DEB","OBJECT_ID":"1970-025TK","EPOCH":"2026-03-08T20:30:06.788736","MEAN_MOTION":13.11023788,"ECCENTRICITY":0.01279366,"INCLINATION":100.0768,"RA_OF_ASC_NODE":86.1332,"ARG_OF_PERICENTER":178.2703,"MEAN_ANOMALY":181.8875,"EPHEMERIS_TYPE":0,"CLASSIFICATION_TYPE":"U","NORAD_CAT_ID":42553,"ELEMENT_SET_NO":999,"REV_AT_EPOCH":54241,"BSTAR":0.00016781361,"MEAN_MOTION_DOT":2.0e-7,"MEAN_MOTION_DDOT":0}]
